SEEDS II (CO-66)        
1 32791U 08021J   26086.91263249  .00020084  00000+0  69680-3 0  9996
2 32791  97.7526  81.1139 0001661 177.9460 182.1786 15.29833820974858
YUBILEINY (RS30)        
1 32953U 08025A   26087.21790414  .00000068  00000+0  41383-3 0  9993
2 32953  82.5034  45.7947 0020187 125.5078 234.7888 12.43176754809634
KKS-1 (KISEKI)          
1 33499U 09002H   26087.15629918  .00001749  00000+0  22256-3 0  9993
2 33499  98.1185   8.3331 0007566 182.9963 177.1206 14.82895594924185
SWISSCUBE               
1 35932U 09051B   26087.15798210  .00001270  00000+0  26125-3 0  9991
2 35932  98.4083 353.6273 0008011 101.6679 258.5421 14.62308315877311
BEESAT-1                
1 35933U 09051C   26087.19440156  .00001060  00000+0  22319-3 0  9997
2 35933  98.4013 353.4672 0006338 112.5234 247.6638 14.61574488877352
ITUPSAT1                
1 35935U 09051E   26087.18319847  .00000961  00000+0  20892-3 0  9993
2 35935  98.4100 352.7319 0008404 123.9167 236.2833 14.60305888876915
XIWANG-1 (HOPE-1)       
1 36122U 09072B   26087.15280774  .00000399  00000+0  11607-2 0  9996
2 36122 100.3944  42.3096 0008135  60.7708 299.4218 13.16438117782340
O/OREOS (USA 219)       
1 37224U 10062C   26087.15349668  .00003022  00000+0  29297-3 0  9990
2 37224  71.9692 263.8424 0016204 225.4252 134.5597 14.93376576104547
JUGNU                   
1 37839U 11058B   26087.13077080  .00000454  00000+0  97636-4 0  9991
2 37839  19.9609  80.8611 0018350 261.0916 167.5824 14.13748391747543
SRMSAT                  
1 37841U 11058D   26086.63734414  .00000411  00000+0  79094-4 0  9990
2 37841  19.9709 193.0714 0011902  27.1284   0.2335 14.11554064746283
STRAND-1                
1 39090U 13009E   26086.94529601  .00000347  00000+0  13104-3 0  9997
2 39090  98.3903 269.1843 0009777 111.7024 248.5205 14.37109738685394
ZACUBE-1 (TSHEPISOSAT)  
1 39417U 13066B   26087.13661132  .00004265  00000+0  33655-3 0  9997
2 39417  97.8138  49.0499 0044541 159.6998 200.6009 15.00485982668573
GOMX-1                  
1 39430U 13066Q   26087.14580183  .00001887  00000+0  29036-3 0  9994
2 39430  97.6558 292.6996 0128831 338.4307  21.1500 14.69166260658015
CUBEBUG-2 (LO-74)       
1 39440U 13066AA  26086.85935682  .00005295  00000+0  49736-3 0  9996
2 39440  97.8830  35.5659 0056813 297.9958  61.5520 14.93154738664855
FUNCUBE-1 (AO-73)       
1 39444U 13066AE  26087.15316135  .00008376  00000+0  53579-3 0  9993
2 39444  97.8205  57.0127 0038954 117.8902 242.6280 15.08226815667445
UWE-3                   
1 39446U 13066AG  26086.85253857  .00003580  00000+0  31439-3 0  9995
2 39446  97.8618  42.4606 0048305 229.9974 129.7003 14.96361547665411
UNISAT-6                
1 40012U 14033C   26087.16962037  .00003497  00000+0  38242-3 0  9999
2 40012  97.7760 241.3820 0044679 337.0018  22.9198 14.87756687634112
DUCHIFAT-1              
1 40021U 14033M   26087.08746642  .00063581  00000+0  10472-2 0  9996
2 40021  98.0604 135.7137 0003871  25.8577 334.2867 15.52112335643123
QB50P1                  
1 40025U 14033R   26087.05068116  .00009255  00000+0  47292-3 0  9999
2 40025  98.1005  92.5803 0010226 135.3949 224.8107 15.16885853640721
LILACSAT-2              
1 40908U 15049K   26087.19193145  .00019185  00000+0  35928-3 0  9999
2 40908  97.4782 121.0649 0007699 171.9467 188.1909 15.48701677583209
FOX-1A (AO-85)          
1 40967U 15058D   26087.17889042  .00002723  00000+0  25325-3 0  9990
2 40967  64.7756 170.6347 0128439  88.4925 273.0895 14.90485538101490
CAS-2T & KS-1Q          
1 41847U 16066G   26087.20126335  .00001064  00000+0  15801-3 0  9996
2 41847  98.3859 163.8462 0342667  15.4703 345.6654 14.44518197493100
RADFXSAT (FOX-1B)       
1 43017U 17073E   26087.13682359  .00008873  00000+0  40083-3 0  9996
2 43017  97.4831 316.0462 0153068 247.9904 110.5005 15.11240847453141
DIWATA-2B               
1 43678U 18084H   26087.20022006  .00001897  00000+0  15734-3 0  9991
2 43678  98.1044 279.9971 0013505  72.1770 288.0924 15.00050159404072
ES'HAIL 2               
1 43700U 18090A   26087.12203229  .00000125  00000+0  00000+0 0  9992
2 43700   0.0127 127.6925 0001105 236.5825 250.9923  1.00273857 26861
FOX-1CLIFF (AO-95)      
1 43770U 18099N   26087.15108796  .00013058  00000+0  52720-3 0  9993
2 43770  97.4477 147.7726 0007436 271.5005  88.5381 15.24883843400862
ITASAT                  
1 43786U 18099AE  26087.10192491  .00007769  00000+0  38512-3 0  9995
2 43786  97.4132 140.2569 0011212 275.1277  84.8677 15.17960867400601
JY1SAT (JO-97)          
1 43803U 18099AX  26087.12185156  .00018852  00000+0  63128-3 0  9993
2 43803  97.4225 149.8032 0006164 184.3041 175.8148 15.30976300401210
UWE-4                   
1 43880U 18111E   26087.05647534  .00032506  00000+0  78296-3 0  9992
2 43880  97.5848  12.0270 0005879 250.9751 109.0858 15.41183267398263
TIANYAN 01              
1 44881U 19093C   26087.19858950  .00000281  00000+0  37863-4 0  9996
2 44881  97.7578 161.3958 0013597 359.8606   0.2604 14.86377294339384
RS-44 & BREEZE-KM R/B   
1 44909U 19096E   26086.93192877  .00000015  00000+0  18710-4 0  9995
2 44909  82.5243  33.6922 0217119 334.6754  24.3826 12.79747709291954
SALSAT                  
1 46495U 20068K   26086.93952320  .00009036  00000+0  32811-3 0  9994
2 46495  97.8865  85.1367 0008650 219.5293 140.5315 15.28526239302943
XW-3 (CAS-9)            
1 50466U 21131B   26087.24841997  .00000410  00000+0  14044-3 0  9996
2 50466  98.4943 180.0959 0003809 359.0728   1.0453 14.41273335223458
GREENCUBE (IO-117)      
1 53109U 22080E   26087.09772905 -.00000003  00000+0  00000+0 0  9994
2 53109  70.1559 326.4569 0008899 308.0956  51.8901  6.42583216 86855
UMKA 1 (RS40S)          
1 57172U 23091G   26087.20573356  .00007092  00000+0  33297-3 0  9995
2 57172  97.5144 146.2359 0014014  48.1068 312.1359 15.19860159151704
CUBESX-HSE 3 (RS42S)    
1 57178U 23091N   26087.15142381  .00015498  00000+0  54906-3 0  9994
2 57178  97.5174 151.8119 0011376  27.7375 332.4469 15.29143620152033
MONITOR-3 (RS58S)       
1 57180U 23091Q   26087.13908044  .00011603  00000+0  45049-3 0  9993
2 57180  97.5169 150.0596 0012500  32.8385 327.3627 15.26178074151922
MONITOR-4 (RS57S)       
1 57182U 23091S   26087.18871102  .00013214  00000+0  51109-3 0  9998
2 57182  97.5163 150.0754 0012476  33.1258 327.0759 15.26270117151934
MONITOR-2 (RS39S)       
1 57184U 23091U   26087.19584105  .00005692  00000+0  28175-3 0  9993
2 57184  97.5166 146.0127 0012236  41.6601 318.5562 15.18128288151667
SVYATOBOR 1 (RS60S)     
1 57187U 23091X   26087.20369742  .00010989  00000+0  43995-3 0  9998
2 57187  97.5174 150.6271 0009944  27.0056 333.1697 15.25191711151968
VIZARD-METEO (RS38S)    
1 57189U 23091Z   26087.16934578  .00019306  00000+0  59894-3 0  9997
2 57189  97.5165 155.1659 0007234  11.8879 348.2533 15.33418064152266
NANOZOND 1 (RS49S)      
1 57190U 23091AA  26087.05900635  .00380566  00000+0  16179-2 0  9991
2 57190  97.5003 168.9041 0004863 264.7705  95.3009 15.84301767153174
POLYTECH-UNIVERSE 3 (R*)
1 57191U 23091AB  26087.16766175  .00006541  00000+0  32092-3 0  9994
2 57191  97.5142 145.4905 0016945  55.6534 304.6300 15.18319431151654
UTMN 2 (RS27S)          
1 57203U 23091AP  26087.14915115  .00014302  00000+0  49406-3 0  9997
2 57203  97.5165 153.3436 0008236  17.6115 342.5409 15.30013845152147
KUZGTU 1 (RS47S)        
1 57217U 23091AV  26087.20664984  .00014027  00000+0  51534-3 0  9993
2 57217  97.5149 150.9466 0011679  30.5213 329.6704 15.27970021152001
SONATE-2                
1 59112U 24043Q   26087.16281601  .00044045  00000+0  70914-3 0  9999
2 59112  97.5424 233.0042 0008062 139.8606 220.3243 15.52806928115294
MESAT1                  
1 60209U 24125G   26087.11115486  .00047613  00000+0  69845-3 0  9996
2 60209  97.2433 303.1719 0012526 152.5582 207.6337 15.55303032 96937
OOV-CUBE (TUBSAT-30)    
1 60240U 24128F   26087.13303295  .00002125  00000+0  17099-3 0  9996
2 60240  61.9946 148.1207 0052953 116.1509 244.5042 15.02368051 93935
COLIBRI-S (RS67S)       
1 61746U 24199M   26087.15660968  .00023979  00000+0  52115-3 0  9999
2 61746  97.3133 320.4169 0008339 204.3263 155.7593 15.44301928124896
HORS 3 (RS81S)          
1 61753U 24199U   26087.18668964  .00037564  00000+0  67841-3 0  9991
2 61753  97.3102 321.6887 0006255 203.6318 156.4647 15.49614603124999
HORS 4 (RS82S)          
1 61754U 24199V   26087.15486375  .00044690  00000+0  72228-3 0  9996
2 61754  97.3074 322.4291 0006031 197.6012 162.5032 15.52712239125042
HORIZON (RS59S)         
1 61757U 24199Y   26087.19480806  .00212773  00000+0  13414-2 0  9996
2 61757  97.3020 326.8969 0005639 163.9841 196.1604 15.76030670125333
ARCTICSAT 1 (RS74S)     
1 61762U 24199AD  26087.14222401  .00141241  00000+0  11676-2 0  9991
2 61762  97.3049 326.2191 0005745 165.0057 195.1377 15.69834009125281
SIT-2086                
1 61764U 24199AF  26087.14355237  .00027170  00000+0  50985-3 0  9998
2 61764  97.3093 322.3501 0006751 192.3071 167.8016 15.48578035121879
HYPERVIEW 1G (RS66S)    
1 61772U 24199AP  26087.17476904  .00080722  00000+0  96928-3 0  9994
2 61772  97.3050 323.7594 0007323 196.9753 163.1260 15.60594625121980
ALTAIR (RS65S)          
1 61779U 24199AW  26087.14772315  .00011777  00000+0  34371-3 0  9991
2 61779  97.3157 317.0693 0011800 232.5652 127.4519 15.35418012124677
ASRTU-1 (AO-123)        
1 61781U 24199AY  26087.13877611  .00009546  00000+0  28804-3 0  9993
2 61781  97.3131 316.5543 0012682 235.3158 124.6891 15.34414546121497
TUSUR GO (RS78S)        
1 61782U 24199AZ  26087.19653941  .00244364  00000+0  14444-2 0  9991
2 61782  97.2972 325.9237 0005766 176.5716 183.5591 15.77416486122130
SAMSAT-IONOSPHERE (RS7*)
1 61784U 24199BB  26087.19559296  .00045036  00000+0  77246-3 0  9996
2 61784  97.3090 321.5244 0009026 209.7388 150.3352 15.51017048124986
